{
  "links" : {
    "next" : "https://api.nasa.gov/neo/rest/v1/feed?start_date=2015-11-09&end_date=2015-11-09&detailed=true&api_key=t0TVs3DtDT2H8Oy2Zy8m2eVrNsAVKAexjcZXUckd",
    "prev" : "https://api.nasa.gov/neo/rest/v1/feed?start_date=2015-11-07&end_date=2015-11-07&detailed=true&api_key=t0TVs3DtDT2H8Oy2Zy8m2eVrNsAVKAexjcZXUckd",
    "self" : "https://api.nasa.gov/neo/rest/v1/feed?start_date=2015-11-08&end_date=2015-11-08&detailed=true&api_key=t0TVs3DtDT2H8Oy2Zy8m2eVrNsAVKAexjcZXUckd"
  },
  "element_count" : 12,
  "near_earth_objects" : {
    "2015-11-08" : [ {
      "links" : {
        "self" : "https://api.nasa.gov/neo/rest/v1/neo/3733132?api_key=t0TVs3DtDT2H8Oy2Zy8m2eVrNsAVKAexjcZXUckd"
      },
      "neo_reference_id" : "3733132",
      "name" : "(2015 VX)",
      "nasa_jpl_url" : "http://ssd.jpl.nasa.gov/sbdb.cgi?sstr=3733132",
      "absolute_magnitude_h" : 23.7,
      "estimated_diameter" : {
        "kilometers" : {
          "estimated_diameter_min" : 0.0483676488,
          "estimated_diameter_max" : 0.1081533507
        },
        "meters" : {
          "estimated_diameter_min" : 48.3676488219,
          "estimated_diameter_max" : 108.1533506775
        },
        "miles" : {
          "estimated_diameter_min" : 0.0300542543,
          "estimated_diameter_max" : 0.0672033557
        },
        "feet" : {
          "estimated_diameter_min" : 158.6865169607,
          "estimated_diameter_max" : 354.8338390368
        }
      },
      "is_potentially_hazardous_asteroid" : false,
      "close_approach_data" : [ {
        "close_approach_date" : "2015-11-08",
        "epoch_date_close_approach" : 1446969600000,
        "relative_velocity" : {
          "kilometers_per_second" : "1.5936145173",
          "kilometers_per_hour" : "5737.0122621514",
          "miles_per_hour" : "3564.7563136685"
        },
        "miss_distance" : {
          "astronomical" : "0.1578502778",
          "lunar" : "61.4037590027",
          "kilometers" : "23614066",
          "miles" : "14673100"
        },
        "orbiting_body" : "Earth"
      } ],
      "orbital_data" : {
        "orbit_id" : "14",
        "orbit_determination_date" : "2017-04-06 08:31:03",
        "orbit_uncertainty" : "6",
        "minimum_orbit_intersection" : ".151566",
        "jupiter_tisserand_invariant" : "4.642",
        "epoch_osculation" : "2458000.5",
        "eccentricity" : ".2093384873763677",
        "semi_major_axis" : "1.439159530815323",
        "inclination" : "3.177777327669405",
        "ascending_node_longitude" : "257.9295029732548",
        "orbital_period" : "630.6114240433211",
        "perihelion_distance" : "1.13788805154116",
        "perihelion_argument" : "156.093188534484",
        "aphelion_distance" : "1.740431010089486",
        "perihelion_time" : "2457977.248169169585",
        "mean_anomaly" : "13.27387798539856",
        "mean_motion" : ".5708745295030828",
        "equinox" : "J2000"
      }
    }, {
      "links" : {
        "self" : "https://api.nasa.gov/neo/rest/v1/neo/3736505?api_key=t0TVs3DtDT2H8Oy2Zy8m2eVrNsAVKAexjcZXUckd"
      },
      "neo_reference_id" : "3736505",
      "name" : "(2015 XO261)",
      "nasa_jpl_url" : "http://ssd.jpl.nasa.gov/sbdb.cgi?sstr=3736505",
      "absolute_magnitude_h" : 21.4,
      "estimated_diameter" : {
        "kilometers" : {
          "estimated_diameter_min" : 0.1394938229,
          "estimated_diameter_max" : 0.3119176705
        },
        "meters" : {
          "estimated_diameter_min" : 139.4938229344,
          "estimated_diameter_max" : 311.9176705226
        },
        "miles" : {
          "estimated_diameter_min" : 0.0866774163,
          "estimated_diameter_max" : 0.1938165949
        },
        "feet" : {
          "estimated_diameter_min" : 457.6569140361,
          "estimated_diameter_max" : 1023.3519701574
        }
      },
      "is_potentially_hazardous_asteroid" : false,
      "close_approach_data" : [ {
        "close_approach_date" : "2015-11-08",
        "epoch_date_close_approach" : 1446969600000,
        "relative_velocity" : {
          "kilometers_per_second" : "7.5153796224",
          "kilometers_per_hour" : "27055.3666405494",
          "miles_per_hour" : "16811.1526772903"
        },
        "miss_distance" : {
          "astronomical" : "0.3152586175",
          "lunar" : "122.6356048584",
          "kilometers" : "47162020",
          "miles" : "29305120"
        },
        "orbiting_body" : "Earth"
      } ],
      "orbital_data" : {
        "orbit_id" : "8",
        "orbit_determination_date" : "2017-04-06 08:29:56",
        "orbit_uncertainty" : "7",
        "minimum_orbit_intersection" : ".146813",
        "jupiter_tisserand_invariant" : "4.204",
        "epoch_osculation" : "2458000.5",
        "eccentricity" : ".3129275467842361",
        "semi_major_axis" : "1.64737047630205",
        "inclination" : "11.92333669038717",
        "ascending_node_longitude" : "51.53744312078407",
        "orbital_period" : "772.2987723737341",
        "perihelion_distance" : "1.131862874508071",
        "perihelion_argument" : "10.97827827089755",
        "aphelion_distance" : "2.162878078096029",
        "perihelion_time" : "2458140.719062538987",
        "mean_anomaly" : "294.6381681290473",
        "mean_motion" : ".4661408419613378",
        "equinox" : "J2000"
      }
    }, {
      "links" : {
        "self" : "https://api.nasa.gov/neo/rest/v1/neo/2152787?api_key=t0TVs3DtDT2H8Oy2Zy8m2eVrNsAVKAexjcZXUckd"
      },
      "neo_reference_id" : "2152787",
      "name" : "152787 (1999 TB10)",
      "nasa_jpl_url" : "http://ssd.jpl.nasa.gov/sbdb.cgi?sstr=2152787",
      "absolute_magnitude_h" : 18.6,
      "estimated_diameter" : {
        "kilometers" : {
          "estimated_diameter_min" : 0.5064714588,
          "estimated_diameter_max" : 1.1325046106
        },
        "meters" : {
          "estimated_diameter_min" : 506.4714588346,
          "estimated_diameter_max" : 1132.5046106177
        },
        "miles" : {
          "estimated_diameter_min" : 0.3147066768,
          "estimated_diameter_max" : 0.7037055224
        },
        "feet" : {
          "estimated_diameter_min" : 1661.651821003,
          "estimated_diameter_max" : 3715.566426699
        }
      },
      "is_potentially_hazardous_asteroid" : false,
      "close_approach_data" : [ {
        "close_approach_date" : "2015-11-08",
        "epoch_date_close_approach" : 1446969600000,
        "relative_velocity" : {
          "kilometers_per_second" : "7.8870155913",
          "kilometers_per_hour" : "28393.2561287594",
          "miles_per_hour" : "17642.4651762283"
        },
        "miss_distance" : {
          "astronomical" : "0.4022380339",
          "lunar" : "156.4705963135",
          "kilometers" : "60173956",
          "miles" : "37390364"
        },
        "orbiting_body" : "Earth"
      } ],
      "orbital_data" : {
        "orbit_id" : "72",
        "orbit_determination_date" : "2017-04-06 09:27:11",
        "orbit_uncertainty" : "0",
        "minimum_orbit_intersection" : ".0990272",
        "jupiter_tisserand_invariant" : "4.775",
        "epoch_osculation" : "2458000.5",
        "eccentricity" : ".2314231314104754",
        "semi_major_axis" : "1.36312510592072",
        "inclination" : "15.95267012432873",
        "ascending_node_longitude" : "1.934106402136816",
        "orbital_period" : "581.3022472232119",
        "perihelion_distance" : "1.047666425404311",
        "perihelion_argument" : "137.3531848757707",
        "aphelion_distance" : "1.678583786437129",
        "perihelion_time" : "2458029.606719662478",
        "mean_anomaly" : "341.9742326327728",
        "mean_motion" : ".6192991713341254",
        "equinox" : "J2000"
      }
    } ]
  }
}